KUIPER-00053            
1 64513U 25134P   26014.61729810  .00007923  00000+0  10669-2 0  9995
2 64513  51.9030 102.2014 0000105 304.3960  55.6992 14.79941210 32201
KUIPER-00054            
1 64514U 25134Q   26014.48743465  .00003001  00000+0  42255-3 0  9993
2 64514  51.8982  97.7544 0004594 135.3756 224.7577 14.79937550 32259
KUIPER-00055            
1 64515U 25134R   26014.38340592  .00005815  00000+0  29080-3 0  9993
2 64515  51.8931  75.2491 0002206 346.0236  14.0682 15.18801377 32560
KUIPER-00056            
1 64516U 25134S   26014.54794238 -.00001853  00000+0 -21401-3 0  9991
2 64516  51.9029 103.5430 0001784 136.2147 223.8957 14.79955943 32186
KUIPER-00057            
1 64517U 25134T   26014.47239387  .00002966  00000+0  41807-3 0  9999
2 64517  51.8996 111.3578 0009000  97.9096 262.2888 14.79917724 32066
KUIPER-00058            
1 64518U 25134U   26014.54689684  .00003760  00000+0  52226-3 0  9997
2 64518  51.9018 104.9484 0004089 147.6125 212.5089 14.79908374 32168
KUIPER-00059            
1 64519U 25134V   26014.61989702 -.00000745  00000+0 -68807-4 0  9995
2 64519  51.9012  99.6827 0001989 327.3404  32.7435 14.79845855 32247
KUIPER-00060            
1 64520U 25134W   26014.61815782 -.00001654  00000+0 -18782-3 0  9999
2 64520  51.9035 100.7349 0001709 184.7904 175.3043 14.79951842 32217
